start=new Date('2022-07-03T00:00:00.000Z').valueOf();
sats=[{"PERIAPSIS":"546.141","TLE_LINE2":"2 46549  53.0570  99.9793 0001556  71.6435 288.4723 15.06398289 96593","MEAN_MOTION_DOT":"0.00000515","EPOCH":"2022-07-02T11:35:21.897312","OBJECT_TYPE":"PAYLOAD","SEMIMAJOR_AXIS":"6925.354","CLASSIFICATION_TYPE":"U","REF_FRAME":"TEME","INCLINATION":"53.0570","DECAY_DATE":null,"TIME_SYSTEM":"UTC","SITE":"AFETR","EPHEMERIS_TYPE":"0","OBJECT_ID":"2020-070T","PERIOD":"95.592","COUNTRY_CODE":"US","GP_ID":"207264811","BSTAR":"0.00005344600000","RCS_SIZE":"LARGE","NORAD_CAT_ID":"46549","OBJECT_NAME":"STARLINK-1700","ELEMENT_SET_NO":"999","CENTER_NAME":"EARTH","ECCENTRICITY":"0.00015560","RA_OF_ASC_NODE":"99.9793","FILE":"3506647","REV_AT_EPOCH":"9659","LAUNCH_DATE":"2020-10-06","MEAN_ELEMENT_THEORY":"SGP4","MEAN_MOTION":"15.06398289","APOAPSIS":"548.296","MEAN_MOTION_DDOT":"0.0000000000000","ARG_OF_PERICENTER":"71.6435","TLE_LINE1":"1 46549U 20070T   22183.48289233  .00000515  00000-0  53446-4 0  9999","MEAN_ANOMALY":"288.4723"},{"GP_ID":"207273574","COUNTRY_CODE":"US","PERIOD":"95.592","SITE":"AFETR","TIME_SYSTEM":"UTC","EPHEMERIS_TYPE":"0","OBJECT_ID":"2020-070U","CLASSIFICATION_TYPE":"U","REF_FRAME":"TEME","SEMIMAJOR_AXIS":"6925.321","DECAY_DATE":null,"INCLINATION":"53.0559","MEAN_MOTION_DOT":"0.00000385","EPOCH":"2022-07-02T19:11:49.157664","TLE_LINE2":"2 46550  53.0559  98.5624 0002243  60.8629 299.2584 15.06409135 96665","PERIAPSIS":"545.632","OBJECT_TYPE":"PAYLOAD","MEAN_ANOMALY":"299.2584","TLE_LINE1":"1 46550U 20070U   22183.79987451  .00000385  00000-0  44781-4 0  9999","ARG_OF_PERICENTER":"60.8629","MEAN_MOTION":"15.06409135","MEAN_ELEMENT_THEORY":"SGP4","LAUNCH_DATE":"2020-10-06","MEAN_MOTION_DDOT":"0.0000000000000","APOAPSIS":"548.739","NORAD_CAT_ID":"46550","OBJECT_NAME":"STARLINK-1701","RCS_SIZE":"LARGE","FILE":"3506793","RA_OF_ASC_NODE":"98.5624","REV_AT_EPOCH":"9666","CENTER_NAME":"EARTH","ELEMENT_SET_NO":"999","ECCENTRICITY":"0.00022430","BSTAR":"0.00004478100000"},{"SEMIMAJOR_AXIS":"6925.336","REF_FRAME":"TEME","CLASSIFICATION_TYPE":"U","DECAY_DATE":null,"INCLINATION":"53.0547","TLE_LINE2":"2 46552  53.0547  83.1295 0001618  67.7232 292.3929 15.06404055 96819","MEAN_MOTION_DOT":"0.00000429","EPOCH":"2022-07-02T21:23:51.336096","PERIAPSIS":"546.081","OBJECT_TYPE":"PAYLOAD","GP_ID":"207273775","COUNTRY_CODE":"US","PERIOD":"95.592","SITE":"AFETR","TIME_SYSTEM":"UTC","EPHEMERIS_TYPE":"0","OBJECT_ID":"2020-070W","NORAD_CAT_ID":"46552","OBJECT_NAME":"STARLINK-1649","RCS_SIZE":"LARGE","FILE":"3506776","REV_AT_EPOCH":"9681","RA_OF_ASC_NODE":"83.1295","ECCENTRICITY":"0.00016180","ELEMENT_SET_NO":"999","CENTER_NAME":"EARTH","BSTAR":"0.00004766400000","TLE_LINE1":"1 46552U 20070W   22183.89156639  .00000429  00000-0  47664-4 0  9990","MEAN_ANOMALY":"292.3929","ARG_OF_PERICENTER":"67.7232","MEAN_MOTION":"15.06404055","LAUNCH_DATE":"2020-10-06","MEAN_ELEMENT_THEORY":"SGP4","MEAN_MOTION_DDOT":"0.0000000000000","APOAPSIS":"548.322"},{"PERIAPSIS":"545.973","MEAN_MOTION_DOT":"0.00000999","EPOCH":"2022-07-02T22:05:39.007104","TLE_LINE2":"2 46553  53.0558  68.0243 0001758  79.4461 280.6726 15.06407460 97095","OBJECT_TYPE":"PAYLOAD","REF_FRAME":"TEME","CLASSIFICATION_TYPE":"U","SEMIMAJOR_AXIS":"6925.326","INCLINATION":"53.0558","DECAY_DATE":null,"TIME_SYSTEM":"UTC","SITE":"AFETR","OBJECT_ID":"2020-070X","EPHEMERIS_TYPE":"0","PERIOD":"95.592","COUNTRY_CODE":"US","GP_ID":"207273772","BSTAR":"0.00008596100000","RCS_SIZE":"LARGE","NORAD_CAT_ID":"46553","OBJECT_NAME":"STARLINK-1664","ECCENTRICITY":"0.00017580","ELEMENT_SET_NO":"999","CENTER_NAME":"EARTH","FILE":"3506776","RA_OF_ASC_NODE":"68.0243","REV_AT_EPOCH":"9709","MEAN_ELEMENT_THEORY":"SGP4","LAUNCH_DATE":"2020-10-06","MEAN_MOTION":"15.06407460","APOAPSIS":"548.408","MEAN_MOTION_DDOT":"0.0000000000000","ARG_OF_PERICENTER":"79.4461","MEAN_ANOMALY":"280.6726","TLE_LINE1":"1 46553U 20070X   22183.92059036  .00000999  00000-0  85961-4 0  9992"},{"BSTAR":"0.00004697100000","OBJECT_NAME":"STARLINK-1671","NORAD_CAT_ID":"46554","RCS_SIZE":"LARGE","FILE":"3506774","RA_OF_ASC_NODE":"83.0663","REV_AT_EPOCH":"9688","ELEMENT_SET_NO":"999","ECCENTRICITY":"0.00015050","CENTER_NAME":"EARTH","MEAN_MOTION":"15.06403783","LAUNCH_DATE":"2020-10-06","MEAN_ELEMENT_THEORY":"SGP4","APOAPSIS":"548.244","MEAN_MOTION_DDOT":"0.0000000000000","MEAN_ANOMALY":"275.7172","TLE_LINE1":"1 46554U 20070Y   22183.90631094  .00000418  00000-0  46971-4 0  9995","ARG_OF_PERICENTER":"84.3989","MEAN_MOTION_DOT":"0.00000418","EPOCH":"2022-07-02T21:45:05.265216","TLE_LINE2":"2 46554  53.0556  83.0663 0001505  84.3989 275.7172 15.06403783 96887","PERIAPSIS":"546.160","OBJECT_TYPE":"PAYLOAD","CLASSIFICATION_TYPE":"U","REF_FRAME":"TEME","SEMIMAJOR_AXIS":"6925.337","DECAY_DATE":null,"INCLINATION":"53.0556","SITE":"AFETR","TIME_SYSTEM":"UTC","OBJECT_ID":"2020-070Y","EPHEMERIS_TYPE":"0","COUNTRY_CODE":"US","GP_ID":"207273447","PERIOD":"95.592"},{"OBJECT_TYPE":"PAYLOAD","MEAN_MOTION_DOT":"0.00000750","EPOCH":"2022-07-02T12:01:54.143904","TLE_LINE2":"2 46556  53.0542  99.8900 0001811  69.0041 291.1142 15.06400935 96607","PERIAPSIS":"545.957","DECAY_DATE":null,"INCLINATION":"53.0542","CLASSIFICATION_TYPE":"U","REF_FRAME":"TEME","SEMIMAJOR_AXIS":"6925.346","OBJECT_ID":"2020-070AA","EPHEMERIS_TYPE":"0","SITE":"AFETR","TIME_SYSTEM":"UTC","GP_ID":"207265563","COUNTRY_CODE":"US","PERIOD":"95.592","BSTAR":"0.00006925800000","FILE":"3506647","RA_OF_ASC_NODE":"99.8900","REV_AT_EPOCH":"9660","ECCENTRICITY":"0.00018110","ELEMENT_SET_NO":"999","CENTER_NAME":"EARTH","NORAD_CAT_ID":"46556","OBJECT_NAME":"STARLINK-1676","RCS_SIZE":"LARGE","APOAPSIS":"548.465","MEAN_MOTION_DDOT":"0.0000000000000","MEAN_MOTION":"15.06400935","LAUNCH_DATE":"2020-10-06","MEAN_ELEMENT_THEORY":"SGP4","MEAN_ANOMALY":"291.1142","TLE_LINE1":"1 46556U 20070AA  22183.50132111  .00000750  00000-0  69258-4 0  9991","ARG_OF_PERICENTER":"69.0041"},{"BSTAR":"0.00001215900000","ELEMENT_SET_NO":"999","CENTER_NAME":"EARTH","ECCENTRICITY":"0.00015830","RA_OF_ASC_NODE":"83.2215","FILE":"3506781","REV_AT_EPOCH":"9688","RCS_SIZE":"LARGE","OBJECT_NAME":"STARLINK-1679","NORAD_CAT_ID":"46557","MEAN_MOTION_DDOT":"0.0000000000000","APOAPSIS":"548.307","MEAN_ELEMENT_THEORY":"SGP4","LAUNCH_DATE":"2020-10-06","MEAN_MOTION":"15.06400811","ARG_OF_PERICENTER":"72.9728","TLE_LINE1":"1 46557U 20070AB  22183.87682610 -.00000100  00000-0  12159-4 0  9994","MEAN_ANOMALY":"287.1434","OBJECT_TYPE":"PAYLOAD","PERIAPSIS":"546.115","TLE_LINE2":"2 46557  53.0561  83.2215 0001583  72.9728 287.1434 15.06400811 96888","MEAN_MOTION_DOT":"-0.00000100","EPOCH":"2022-07-02T21:02:37.775040","INCLINATION":"53.0561","DECAY_DATE":null,"SEMIMAJOR_AXIS":"6925.346","REF_FRAME":"TEME","CLASSIFICATION_TYPE":"U","OBJECT_ID":"2020-070AB","EPHEMERIS_TYPE":"0","TIME_SYSTEM":"UTC","SITE":"AFETR","PERIOD":"95.592","COUNTRY_CODE":"US","GP_ID":"207273508"},{"APOAPSIS":"548.426","MEAN_MOTION_DDOT":"0.0000000000000","LAUNCH_DATE":"2020-10-06","MEAN_ELEMENT_THEORY":"SGP4","MEAN_MOTION":"15.06398026","ARG_OF_PERICENTER":"66.5236","TLE_LINE1":"1 46558U 20070AC  22183.88419177  .00000258  00000-0  36258-4 0  9991","MEAN_ANOMALY":"293.5936","BSTAR":"0.00003625800000","ECCENTRICITY":"0.00017420","ELEMENT_SET_NO":"999","CENTER_NAME":"EARTH","RA_OF_ASC_NODE":"83.1632","FILE":"3506792","REV_AT_EPOCH":"9688","RCS_SIZE":"LARGE","NORAD_CAT_ID":"46558","OBJECT_NAME":"STARLINK-1680","OBJECT_ID":"2020-070AC","EPHEMERIS_TYPE":"0","TIME_SYSTEM":"UTC","SITE":"AFETR","PERIOD":"95.592","GP_ID":"207273867","COUNTRY_CODE":"US","OBJECT_TYPE":"PAYLOAD","PERIAPSIS":"546.013","TLE_LINE2":"2 46558  53.0567  83.1632 0001742  66.5236 293.5936 15.06398026 96889","EPOCH":"2022-07-02T21:13:14.168928","MEAN_MOTION_DOT":"0.00000258","INCLINATION":"53.0567","DECAY_DATE":null,"SEMIMAJOR_AXIS":"6925.355","CLASSIFICATION_TYPE":"U","REF_FRAME":"TEME"},{"OBJECT_TYPE":"PAYLOAD","PERIAPSIS":"545.982","MEAN_MOTION_DOT":"0.00001767","EPOCH":"2022-07-02T01:48:49.834656","TLE_LINE2":"2 46559  53.0559  71.7964 0001771  76.7450 283.3737 15.06401635 96950","INCLINATION":"53.0559","DECAY_DATE":null,"CLASSIFICATION_TYPE":"U","REF_FRAME":"TEME","SEMIMAJOR_AXIS":"6925.344","EPHEMERIS_TYPE":"0","OBJECT_ID":"2020-070AD","TIME_SYSTEM":"UTC","SITE":"AFETR","PERIOD":"95.592","COUNTRY_CODE":"US","GP_ID":"207264812","BSTAR":"0.00013748000000","ELEMENT_SET_NO":"999","CENTER_NAME":"EARTH","ECCENTRICITY":"0.00017710","FILE":"3506647","REV_AT_EPOCH":"9695","RA_OF_ASC_NODE":"71.7964","RCS_SIZE":"LARGE","NORAD_CAT_ID":"46559","OBJECT_NAME":"STARLINK-1681","APOAPSIS":"548.435","MEAN_MOTION_DDOT":"0.0000000000000","LAUNCH_DATE":"2020-10-06","MEAN_ELEMENT_THEORY":"SGP4","MEAN_MOTION":"15.06401635","ARG_OF_PERICENTER":"76.7450","MEAN_ANOMALY":"283.3737","TLE_LINE1":"1 46559U 20070AD  22183.07557679  .00001767  00000-0  13748-3 0  9997"},{"MEAN_MOTION_DOT":"0.00000599","EPOCH":"2022-07-02T21:34:28.092864","TLE_LINE2":"2 46560  53.0562  83.0994 0001554  69.7014 290.4142 15.06399903 96887","PERIAPSIS":"546.138","OBJECT_TYPE":"PAYLOAD","REF_FRAME":"TEME","CLASSIFICATION_TYPE":"U","SEMIMAJOR_AXIS":"6925.349","DECAY_DATE":null,"INCLINATION":"53.0562","SITE":"AFETR","TIME_SYSTEM":"UTC","EPHEMERIS_TYPE":"0","OBJECT_ID":"2020-070AE","COUNTRY_CODE":"US","GP_ID":"207273933","PERIOD":"95.592","BSTAR":"0.00005907600000","NORAD_CAT_ID":"46560","OBJECT_NAME":"STARLINK-1706","RCS_SIZE":"LARGE","REV_AT_EPOCH":"9688","FILE":"3506785","RA_OF_ASC_NODE":"83.0994","ELEMENT_SET_NO":"999","CENTER_NAME":"EARTH","ECCENTRICITY":"0.00015540","MEAN_MOTION":"15.06399903","LAUNCH_DATE":"2020-10-06","MEAN_ELEMENT_THEORY":"SGP4","MEAN_MOTION_DDOT":"0.0000000000000","APOAPSIS":"548.290","MEAN_ANOMALY":"290.4142","TLE_LINE1":"1 46560U 20070AE  22183.89893626  .00000599  00000-0  59076-4 0  9991","ARG_OF_PERICENTER":"69.7014"}];
